NORAD_CAT_ID,OBJECT_NAME,OBJECT_TYPE,EPOCH,MEAN_MOTION,ECCENTRICITY,INCLINATION,RA_OF_ASC_NODE,ARG_OF_PERICENTER,MEAN_ANOMALY,BSTAR,MEAN_MOTION_DOT,MEAN_MOTION_DDOT,TLE_LINE0,TLE_LINE1,TLE_LINE2,SEMIMAJOR_AXIS,PERIOD,APOGEE,PERIGEE,DECAYED
49152.0,STARLINK-3081,PAYLOAD,2022-10-27 20:03:02,14.983235699999998,0.000318,69.9982,112.8257,256.4916,103.5889,5.4949e-05,5.63e-06,0.0,0 STARLINK-3081,1 49152U 21082Y   22300.83544271  .00000563  00000-0  54949-4 0  9994,2 49152  69.9982 112.8257 0003180 256.4916 103.5889 14.98323570 64014,6950.2130000000025,96.107,574.288,569.868,0.0
49152.0,STARLINK-3081,PAYLOAD,2022-10-28 12:04:22,14.98327439,0.0003163,69.9982,111.1424,256.528,103.5527,6.684800000000001e-05,7.05e-06,0.0,0 STARLINK-3081,1 49152U 21082Y   22301.50304214  .00000705  00000-0  66848-4 0  9999,2 49152  69.9982 111.1424 0003163 256.5280 103.5527 14.98327439 64116,6950.201,96.107,574.264,569.867,0.0
49152.0,STARLINK-3081,PAYLOAD,2022-10-28 20:05:03,14.9832882,0.0003151,69.9982,110.3007,256.6779,103.4029,7.8532e-05,8.44e-06,0.0,0 STARLINK-3081,1 49152U 21082Y   22301.83684156  .00000844  00000-0  78532-4 0  9998,2 49152  69.9982 110.3007 0003151 256.6779 103.4029 14.98328820 64172,6950.196999999999,96.107,574.252,569.872,0.0
49152.0,STARLINK-3081,PAYLOAD,2022-10-28 21:41:11,14.98329105,0.0003148,69.9983,110.1323,256.6978,103.383,8.0214e-05,8.64e-06,0.0,0 STARLINK-3081,1 49152U 21082Y   22301.90360140  .00000864  00000-0  80214-4 0  9992,2 49152  69.9983 110.1323 0003148 256.6978 103.3830 14.98329105 64175,6950.196,96.107,574.249,569.873,0.0
49152.0,STARLINK-3081,PAYLOAD,2022-10-29 20:07:13,14.98226549,0.0002892,69.999,107.7815,241.6125,118.4742,-0.0010047,-0.00012028,0.0,0 STARLINK-3081,1 49152U 21082Y   22302.83835496 -.00012028  00000-0 -10047-2 0  9998,2 49152  69.9990 107.7815 0002892 241.6125 118.4742 14.98226549 64328,6950.513000000001,96.114,574.388,570.368,0.0
49152.0,STARLINK-3081,PAYLOAD,2022-10-30 12:08:28,14.9831958,0.0003116,69.9987,106.0935,266.6025,93.4778,5.4553e-05,5.58e-06,0.0,0 STARLINK-3081,1 49152U 21082Y   22303.50588732  .00000558  00000-0  54553-4 0  9996,2 49152  69.9987 106.0935 0003116 266.6025  93.4778 14.98319580 64414,6950.225,96.108,574.256,569.924,0.0
49152.0,STARLINK-3081,PAYLOAD,2022-10-30 20:09:06,14.98348757,0.0002855,69.9987,105.2521,250.8819,109.2031,0.00036388,4.253e-05,0.0,0 STARLINK-3081,1 49152U 21082Y   22303.83966144  .00004253  00000-0  36388-3 0  9990,2 49152  69.9987 105.2521 0002855 250.8819 109.2031 14.98348757 64462,6950.135,96.106,573.984,570.016,0.0
49152.0,STARLINK-3081,PAYLOAD,2022-10-31 12:10:23,14.98344904,0.0002545,69.997,103.5662,252.3453,107.7428,0.0013005,0.00015464,0.0,0 STARLINK-3081,1 49152U 21082Y   22304.50722107  .00015464  00000-0  13005-2 0  9990,2 49152  69.9970 103.5662 0002545 252.3453 107.7428 14.98344904 64562,6950.147,96.106,573.781,570.243,0.0
49152.0,STARLINK-3081,PAYLOAD,2022-10-31 16:58:50,14.98315294,0.0002755,69.9964,103.0618,256.9421,103.143,0.00093341,0.00011057,0.0,0 STARLINK-3081,1 49152U 21082Y   22304.70752832  .00011057  00000-0  93341-3 0  9996,2 49152  69.9964 103.0618 0002755 256.9421 103.1430 14.98315294 64595,6950.238,96.108,574.018,570.189,0.0
49152.0,STARLINK-3081,PAYLOAD,2022-11-01 10:36:19,14.98365586,0.0002944,69.9979,101.2098,252.0746,108.0092,-0.00021109,-2.613e-05,0.0,0 STARLINK-3081,1 49152U 21082Y   22305.44188867 -.00002613  00000-0 -21109-3 0  9992,2 49152  69.9979 101.2098 0002944 252.0746 108.0092 14.98365586 64700,6950.083000000001,96.105,573.994,569.9019999999998,0.0
49152.0,STARLINK-3081,PAYLOAD,2022-11-01 17:00:50,14.98363222,0.0003046,69.9977,100.5366,251.3216,108.7612,-0.00023497,-2.898e-05,0.0,0 STARLINK-3081,1 49152U 21082Y   22305.70892360 -.00002898  00000-0 -23497-3 0  9998,2 49152  69.9977 100.5366 0003046 251.3216 108.7612 14.98363222 64751,6950.09,96.105,574.072,569.8380000000002,0.0
49152.0,STARLINK-3081,PAYLOAD,2022-11-01 20:13:07,14.98360868,0.0003171999999999,69.9978,100.2004,251.6924,108.389,-0.00025552,-3.143e-05,0.0,0 STARLINK-3081,1 49152U 21082Y   22305.84244225 -.00003143  00000-0 -25552-3 0  9992,2 49152  69.9978 100.2004 0003172 251.6924 108.3890 14.98360868 64765,6950.097,96.105,574.1669999999998,569.758,0.0
49152.0,STARLINK-3081,PAYLOAD,2022-11-02 10:38:18,14.98373585,0.0002937,69.9968,98.6849,251.7489,108.3351,-0.00076315,-9.197e-05,0.0,0 STARLINK-3081,1 49152U 21082Y   22306.44327378 -.00009197  00000-0 -76315-3 0  9998,2 49152  69.9968  98.6849 0002937 251.7489 108.3351 14.98373585 64858,6950.058000000001,96.104,573.964,569.882,0.0
49152.0,STARLINK-3081,PAYLOAD,2022-11-03 10:40:18,14.98342409,0.0002723,69.9981,96.1603,243.5118,116.5762,4.4833e-05,4.42e-06,0.0,0 STARLINK-3081,1 49152U 21082Y   22307.44465859  .00000442  00000-0  44833-4 0  9999,2 49152  69.9981  96.1603 0002723 243.5118 116.5762 14.98342409 65012,6950.155,96.106,573.9119999999998,570.127,0.0
49152.0,STARLINK-3081,PAYLOAD,2022-11-03 20:17:06,14.98342577,0.0003472,69.9972,95.15,260.6251,99.4516,5.4202e-05,5.54e-06,0.0,0 STARLINK-3081,1 49152U 21082Y   22307.84521499  .00000554  00000-0  54202-4 0  9991,2 49152  69.9972  95.1500 0003472 260.6251  99.4516 14.98342577 65064,6950.154,96.106,574.432,569.606,0.0
49152.0,STARLINK-3081,PAYLOAD,2022-11-04 10:42:19,14.98338952,0.0002942,70.0002,93.6352,250.8854,109.1987,2.3453e-06,-6.5e-07,0.0,0 STARLINK-3081,1 49152U 21082Y   22308.44605590 -.00000065  00000-0  23453-5 0  9996,2 49152  70.0002  93.6352 0002942 250.8854 109.1987 14.98338952 65153,6950.165,96.106,574.075,569.985,0.0
49152.0,STARLINK-3081,PAYLOAD,2022-11-04 20:19:07,14.98336185,0.0002996,69.9992,92.6246,253.4658,106.6172,-2.7808e-05,-4.25e-06,0.0,0 STARLINK-3081,1 49152U 21082Y   22308.84661638 -.00000425  00000-0 -27808-4 0  9993,2 49152  69.9992  92.6246 0002996 253.4658 106.6172 14.98336185 65210,6950.174,96.107,574.121,569.956,0.0
49152.0,STARLINK-3081,PAYLOAD,2022-11-05 09:08:12,14.98337493,0.0002944,69.9993,91.2797,261.2463,98.8363,-5.921e-05,-8e-06,0.0,0 STARLINK-3081,1 49152U 21082Y   22309.38069469 -.00000800  00000-0 -59210-4 0  9996,2 49152  69.9993  91.2797 0002944 261.2463  98.8363 14.98337493 65296,6950.17,96.107,574.081,569.989,0.0
49152.0,STARLINK-3081,PAYLOAD,2022-11-05 15:32:44,14.98331694,0.000298,69.9991,90.6064,263.681,96.4009,-0.00010729,-1.373e-05,0.0,0 STARLINK-3081,1 49152U 21082Y   22309.64773887 -.00001373  00000-0 -10729-3 0  9998,2 49152  69.9991  90.6064 0002980 263.6810  96.4009 14.98331694 65340,6950.188,96.107,574.124,569.981,0.0
49152.0,STARLINK-3081,PAYLOAD,2022-11-06 10:46:22,14.98312956,0.0003121,69.9987,88.586,258.3009,101.78,-0.00013754,-1.733e-05,0.0,0 STARLINK-3081,1 49152U 21082Y   22310.44887468 -.00001733  00000-0 -13754-3 0  9990,2 49152  69.9987  88.5860 0003121 258.3009 101.7800 14.98312956 65466,6950.246,96.108,574.28,569.941,0.0
49152.0,STARLINK-3081,PAYLOAD,2022-11-06 12:22:30,14.98313433,0.0003108,69.9988,88.4177,258.1189,101.9621,-0.00012895,-1.631e-05,0.0,0 STARLINK-3081,1 49152U 21082Y   22310.51563478 -.00001631  00000-0 -12895-3 0  9992,2 49152  69.9988  88.4177 0003108 258.1189 101.9621 14.98313433 65463,6950.244000000002,96.108,574.269,569.9490000000002,0.0
49152.0,STARLINK-3081,PAYLOAD,2022-11-06 18:47:02,14.98320082,0.0003073,69.9988,87.7444,257.8567,102.2248,-4.6165e-05,-6.44e-06,0.0,0 STARLINK-3081,1 49152U 21082Y   22310.78267049 -.00000644  00000-0 -46165-4 0  9997,2 49152  69.9988  87.7444 0003073 257.8567 102.2248 14.98320082 65512,6950.224,96.108,574.224,569.953,0.0
49152.0,STARLINK-3081,PAYLOAD,2022-11-07 15:36:47,14.98298838,0.0002856,69.9988,85.5558,248.0571,112.0284,0.00061023,7.190000000000001e-05,0.0,0 STARLINK-3081,1 49152U 21082Y   22311.65055178  .00007190  00000-0  61023-3 0  9992,2 49152  69.9988  85.5558 0002856 248.0571 112.0284 14.98298838 65634,6950.2890000000025,96.109,574.139,570.169,0.0
49152.0,STARLINK-3081,PAYLOAD,2022-11-08 02:49:43,14.98325949,0.000295,69.9981,84.3756,253.4777,106.6058,0.0002262,2.607e-05,0.0,0 STARLINK-3081,1 49152U 21082Y   22312.11786494  .00002607  00000-0  22620-3 0  9994,2 49152  69.9981  84.3756 0002950 253.4777 106.6058 14.98325949 65718,6950.205,96.107,574.121,570.02,0.0
49152.0,STARLINK-3081,PAYLOAD,2022-11-08 09:14:14,14.98344751,0.0003042,69.999,83.7044,258.3593,101.7225,0.00030054,3.496e-05,0.0,0 STARLINK-3081,1 49152U 21082Y   22312.38488915  .00003496  00000-0  30054-3 0  9997,2 49152  69.9990  83.7044 0003042 258.3593 101.7225 14.98344751 65752,6950.147,96.106,574.127,569.898,0.0
49152.0,STARLINK-3081,PAYLOAD,2022-11-08 15:38:46,14.98339323,0.0002944,69.9985,83.0299,256.5671,103.516,0.00023069,2.661e-05,0.0,0 STARLINK-3081,1 49152U 21082Y   22312.65193282  .00002661  00000-0  23069-3 0  9998,2 49152  69.9985  83.0299 0002944 256.5671 103.5160 14.98339323 65799,6950.1640000000025,96.106,574.075,569.9830000000002,0.0
49152.0,STARLINK-3081,PAYLOAD,2022-11-09 10:52:25,14.98317282,0.0004021,69.9995,81.0118,282.0383,78.0325,-0.00014326,-1.802e-05,0.0,0 STARLINK-3081,1 49152U 21082Y   22313.45307166 -.00001802  00000-0 -14326-3 0  9999,2 49152  69.9995  81.0118 0004021 282.0383  78.0325 14.98317282 65913,6950.232,96.108,574.8919999999998,569.303,0.0
49152.0,STARLINK-3081,PAYLOAD,2022-11-09 14:04:41,14.98318622,0.0002921,69.9995,80.6745,257.819,102.2642,-0.00014408,-1.811e-05,0.0,0 STARLINK-3081,1 49152U 21082Y   22313.58659000 -.00001811  00000-0 -14408-3 0  9991,2 49152  69.9995  80.6745 0002921 257.8190 102.2642 14.98318622 65929,6950.228,96.108,574.123,570.063,0.0
49152.0,STARLINK-3081,PAYLOAD,2022-11-09 15:40:49,14.98327905,0.0003308,69.9983,80.5048,266.8732,93.2048,-0.00021494,-2.657e-05,0.0,0 STARLINK-3081,1 49152U 21082Y   22313.65334623 -.00002657  00000-0 -21494-3 0  9992,2 49152  69.9983  80.5048 0003308 266.8732  93.2048 14.98327905 65948,6950.199000000001,96.107,574.363,569.765,0.0
